COSMOS 2251 DEB         
1 34752U 93036ZW  17346.30823906  .00000496  00000-0  86847-4 0  9990
2 34752  74.0226 313.0001 0088285 107.2123 253.8734 14.68180655467800
